[{"OBJECT_NAME":"YAOGAN-39 04A","OBJECT_ID":"2023-163A","EPOCH":"2026-03-06T06:05:45.530880","MEAN_MOTION":15.22966265,"ECCENTRICITY":0.00046272,"INCLINATION":34.9991,"RA_OF_ASC_NODE":272.0787,"ARG_OF_PERICENTER":162.7485,"MEAN_ANOMALY":197.3387,"EPHEMERIS_TYPE":0,"CLASSIFICATION_TYPE":"U","NORAD_CAT_ID":58141,"ELEMENT_SET_NO":999,"REV_AT_EPOCH":13187,"BSTAR":8.2738647e-5,"MEAN_MOTION_DOT":1.955e-5,"MEAN_MOTION_DDOT":0},{"OBJECT_NAME":"CZ-4C DEB","OBJECT_ID":"2007-055C","EPOCH":"2026-03-09T22:46:15.652128","MEAN_MOTION":15.30523578,"ECCENTRICITY":0.00469709,"INCLINATION":97.8668,"RA_OF_ASC_NODE":247.2248,"ARG_OF_PERICENTER":277.363,"MEAN_ANOMALY":82.2273,"EPHEMERIS_TYPE":0,"CLASSIFICATION_TYPE":"U","NORAD_CAT_ID":35248,"ELEMENT_SET_NO":999,"REV_AT_EPOCH":97353,"BSTAR":0.0018809895,"MEAN_MOTION_DOT":0.000577,"MEAN_MOTION_DDOT":0}]
